AO-07
1 07530U 74089B   25353.85069855 -.00000037  00000+0  59616-4 0  9998
2 07530 101.9963   0.1931 0012385 113.2137   9.1993 12.53694381338048
PHASE 3B (AO-10)
1 14129U 83058B   25353.68399690 -.00000211  00000+0  00000+0 0  9992
2 14129  26.0411 249.9931 6064484  65.5730 344.6844  2.05874384291790
UO-11
1 14781U 84021B   25353.84397384  .00001185  00000+0  12799-3 0  9995
2 14781  97.7820 316.7623 0009116  62.3801 297.8342 14.90163489230411
AO-27
1 22825U 93061C   25353.64169227  .00000096  00000+0  53797-4 0  9992
2 22825  98.7137  55.9252 0007307 266.4784  93.5562 14.30879143681328
FO-29
1 24278U 96046B   25353.20552664 -.00000035  00000+0  11478-5 0  9990
2 24278  98.5459 221.4730 0349439 203.1787 155.3258 13.53262932448825
GO-32
1 25397U 98043D   25353.23960095  .00000059  00000+0  45722-4 0  9999
2 25397  98.9925 336.6018 0001867  47.1475 312.9859 14.24378852425717
ISS
1 25544U 98067A   25353.44148582  .00006778  00000+0  12809-3 0  9994
2 25544  51.6317 109.2912 0003173 271.3280  88.7345 15.49667075543890
NO-44
1 26931U 01043C   25353.37197271  .00000116  00000+0  74296-4 0  9993
2 26931  67.0515 349.3269 0007420 269.6286  90.3965 14.31858315264705
SO-50
1 27607U 02058C   25353.21431345  .00001457  00000+0  19179-3 0  9994
2 27607  64.5532 325.5870 0072510 295.3542  64.0067 14.82416051237775
CO-55
1 27844U 03031E   25353.82631338  .00000274  00000+0  13775-3 0  9992
2 27844  98.6762 359.6379 0009414 353.0226   7.0821 14.24185021166140
CO-57
1 27848U 03031J   25353.44482588  .00000234  00000+0  12209-3 0  9992
2 27848  98.6791 359.1180 0009673  12.1508 347.9902 14.23492007165806
RS-22
1 27939U 03042A   25353.85709647  .00000978  00000+0  16050-3 0  9991
2 27939  98.3358 168.2460 0012325 114.6626  22.5198 14.72988994189145
CO-58
1 28895U 05043F   25353.37555023  .00001244  00000+0  20666-3 0  9995
2 28895  98.2728 140.5657 0015190  58.5337 301.7351 14.71922883 75293
CO-65
1 32785U 08021C   25351.68477250  .00005656  00000+0  38073-3 0  9996
2 32785  97.8081 324.8433 0007829 290.5969  69.4418 15.07103756957832
CO-66
1 32791U 08021J   25353.46349815  .00012670  00000+0  50331-3 0  9991
2 32791  97.7441 338.8410 0002130 175.3833 184.7424 15.25467941959826
RS-30
1 32953U 08025A   25353.79268938 -.00000072  00000+0 -59028-3 0  9994
2 32953  82.5025 107.0367 0018731 345.4795  14.5745 12.43171731797400
SRMSAT
1 37841U 11058D   25353.61177772  .00000383  00000+0  64258-4 0  9996
2 37841  19.9723  66.3596 0011928  29.0252 120.8933 14.11513672732416
ZACUBE-1
1 39417U 13066B   25351.39749824  .00003280  00000+0  27002-3 0  9998
2 39417  97.8056 307.9496 0042001 132.1904 228.2897 14.99124350653477
TRITON-1
1 39427U 13066M   25353.80510375  .00002164  00000+0  26893-3 0  9991
2 39427  97.8328 262.7538 0093489  98.3181 262.8644 14.80524181647531
GOMX-1
1 39430U 13066Q   25353.85122672  .00001953  00000+0  30401-3 0  9994
2 39430  97.6584 200.5319 0129225 293.6053  65.1628 14.68618026643585
LO-74
1 39440U 13066AA  25351.56788106  .00003439  00000+0  33426-3 0  9992
2 39440  97.8708 295.2332 0058016 269.4523  90.0047 14.92015584649893
AO-73
1 39444U 13066AE  25353.63143087  .00005792  00000+0  39366-3 0  9992
2 39444  97.8077 316.9945 0041135  93.3798 267.2135 15.06063041652605
DTUSAT-2
1 40030U 14033W   25351.70002679  .00007073  00000+0  41774-3 0  9997
2 40030  98.0754 333.4459 0009697 125.2587 234.9550 15.11812878625232
EO-80
1 40032U 14033Y   25353.76206488  .00006410  00000+0  37784-3 0  9991
2 40032  98.0641 335.0076 0009767  70.1817 290.0464 15.11927088625523
METEOR-M-2
1 40069U 14037A   25353.85810302  .00000132  00000+0  79599-4 0  9997
2 40069  98.4900 331.1696 0005365 187.2258 172.8844 14.21389090593842
LILACSAT-2
1 40908U 15049K   25353.86136551  .00011248  00000+0  24080-3 0  9995
2 40908  97.4900  19.4635 0008009 170.6709 189.4690 15.44927461568006
Horyu-4
1 41340U 16012D   25353.44060457  .00038048  00000+0  62322-3 0  9990
2 41340  30.9940 263.9528 0006847 298.9646  61.0317 15.51187828542592
Lapan A3
1 41603U 16040E   25353.88158102  .00002727  00000+0  91687-4 0  9998
2 41603  97.1423 351.1781 0008994 304.9457  55.0940 15.31605625527359
TechnoSat
1 42829U 17042E   25353.45059574  .00002767  00000+0  20680-3 0  9996
2 42829  97.4052 153.3681 0017875 352.6481   7.4480 15.03463352459685
NOAA 20
1 43011U 17072B   25353.74865258  .00000027  00000+0  29422-4 0  9990
2 43011  98.9631   2.3998 0009409 319.8687  40.1798 14.28652439421732
AO-91
1 43017U 17073E   25353.07726365  .00007845  00000+0  37160-3 0  9990
2 43017  97.4940 219.1298 0159297 228.4685 130.2789 15.08989957438196
S-Net D
1 43186U 18014G   25353.22935531  .00004482  00000+0  24745-3 0  9996
2 43186  97.5494 254.2652 0006948 286.7972  73.2497 15.14426292431507
S-Net B
1 43187U 18014H   25353.63396183  .00003973  00000+0  21989-3 0  9997
2 43187  97.5500 254.6471 0007496 279.0094  81.0290 15.14405547431562
S-Net A
1 43188U 18014J   25353.69154808  .00004395  00000+0  24265-3 0  9999
2 43188  97.5507 254.8817 0007426 279.6963  80.3430 15.14436453431579
S-Net C
1 43189U 18014K   25353.24050068  .00004088  00000+0  22614-3 0  9999
2 43189  97.5525 254.4807 0008773 272.2026  87.8201 15.14397450430053
Ten-Koh
1 43677U 18084G   25353.44087403  .00002212  00000+0  17436-3 0  9996
2 43677  98.0745 173.3326 0009022   6.5240 353.6099 15.01857808389173
PO-101
1 43678U 18084H   25353.85912619  .00002679  00000+0  22354-3 0  9990
2 43678  98.1021 177.6079 0007654  28.4525 331.7113 14.99473535389331
QO-100
1 43700U 18090A   25353.62916108  .00000169  00000+0  00000+0 0  9997
2 43700   0.0156  30.8445 0000966 258.7498  51.1765  1.00271917 25871
MinXSS-2
1 43758U 18099A   25353.14505923  .00021283  00000+0  63070-3 0  9995
2 43758  97.4793  60.5979 0009362 188.0893 172.0200 15.34833113386406
AO-95
1 43770U 18099N   25353.10461186  .00010084  00000+0  44381-3 0  9998
2 43770  97.4671  49.3405 0008259 260.2802  99.7501 15.22022791385789
SNUSat 2
1 43782U 18099AA  25353.11733939  .00006997  00000+0  34313-3 0  9992
2 43782  97.4346  44.4147 0010577 198.3316 161.7538 15.18381870385676
SnugLite
1 43784U 18099AC  25353.41875653  .00009143  00000+0  39829-3 0  9990
2 43784  97.4161  44.7821 0002869 174.7228 185.4039 15.22424895385927
ITASat 1
1 43786U 18099AE  25353.62791102  .00005881  00000+0  30763-3 0  9994
2 43786  97.4315  43.7960 0011934 256.7271 103.2632 15.16167324385678
EAGLET 1
1 43790U 18099AJ  25353.12787171  .00003440  00000+0  20855-3 0  9995
2 43790  97.4518  42.5013 0010037 244.2891 115.7303 15.11173048385125
ESEO
1 43792U 18099AL  25353.53675252  .00002183  00000+0  16420-3 0  9994
2 43792  97.4223  33.4425 0011519 222.9460 137.0868 15.03507563384808
JO-97
1 43803U 18099AX  25353.43435815  .00012067  00000+0  45701-3 0  9991
2 43803  97.4415  51.2298 0006419 176.9567 183.1712 15.27043751386137
Suomi 100
1 43804U 18099AY  25353.61818933  .00008912  00000+0  37603-3 0  9994
2 43804  97.4479  50.0258 0010790 186.6093 173.5003 15.23470530386030
ISAT
1 43879U 18111D   25353.68008470  .00026602  00000+0  61832-3 0  9992
2 43879  97.5918 273.6582 0004029 211.2704 148.8304 15.42308862383312
UWE-4
1 43880U 18111E   25353.21927691  .00017452  00000+0  52029-3 0  9999
2 43880  97.5865 269.9239 0007271 246.6380 113.4098 15.34706356383078
Sparrow
1 43881U 18111F   25353.26562205  .00033768  00000+0  72522-3 0  9999
2 43881  97.6103 277.0215 0001923 289.5361  70.5679 15.44623778383370
Prox-1
1 44339U 19036A   25353.02313865  .00011066  00000+0  12251-2 0  9994
2 44339  23.9949 233.1519 0006503 112.3836 247.7351 14.85340321346602
Taurus 1
1 44530U 19059C   25353.71790058  .00006677  00000+0  11401-2 0  9999
2 44530  98.6222 142.9561 0009198 153.3018 206.8661 14.69255504332269
TO-108
1 44881U 19093C   25353.83759819  .00001469  00000+0  17350-3 0  9993
2 44881  97.7759  65.3109 0012778 322.2141  37.8176 14.86120789324776
FloripaSat 1
1 44885U 19093G   25353.84201208  .00004816  00000+0  37820-3 0  9995
2 44885  97.8044  82.0694 0009742 312.2343  47.8054 15.01353890325713
RS-44
1 44909U 19096E   25353.81587961  .00000011  00000+0  13209-5 0  9995
2 44909  82.5215  98.9070 0217299 203.5078 155.5976 12.79746120279408
SALSAT
1 46495U 20068K   25353.48061531  .00006196  00000+0  24069-3 0  9995
2 46495  97.8779 341.1169 0009485 202.4725 157.6098 15.26432785287916
CSS (TIANHE-1)
1 48274U 21035A   25353.82384830  .00017215  00000+0  21455-3 0  9995
2 48274  41.4685 333.6904 0007721  93.5896 266.5825 15.59477227265130
CUTE
1 49263U 21088D   25353.64371309  .00021111  00000+0  27262-3 0  9991
2 49263  97.4349  76.8036 0004562 237.9346 122.1467 15.58983994234376
TeikyoSat 4
1 49396U 21102B   25352.63779598  .00002222  00000+0  14549-3 0  9991
2 49396  97.3892  24.0158 0011990 187.1020 173.0041 15.08669848225493
Z-Sat
1 49399U 21102E   25353.83755091  .00003990  00000+0  20738-3 0  9999
2 49399  97.3574  29.5674 0017974 148.1936 212.0386 15.16499304226244
KOSEN 1
1 49402U 21102H   25353.07351674  .00006715  00000+0  28153-3 0  9996
2 49402  97.3462  33.8321 0016116 120.7393 239.5434 15.23711085226566
HO-113
1 50466U 21131B   25353.87091624  .00000446  00000+0  15230-3 0  9991
2 50466  98.5055  82.2570 0003066 278.6671  81.4170 14.41121050209282
SNUGLITE 2
1 52899U 22065F   25353.84265959  .00000897  00000+0  18084-3 0  9991
2 52899  98.1931 134.3355 0006779 220.1603 139.9099 14.63854355184752
METEOR-M2-3
1 57166U 23091A   25353.85835111  .00000013  00000+0  24498-4 0  9994
2 57166  98.6368  47.2731 0003501 347.6449  12.4643 14.24026891128993
UmKA 1 (RS40S)
1 57172U 23091G   25353.79442297  .00004528  00000+0  22392-3 0  9998
2 57172  97.5334  48.2288 0014195  30.5500 329.6557 15.18257482136763
CubeBel-2 (EU11S)
1 57175U 23091K   25353.81167042  .00008618  00000+0  35592-3 0  9996
2 57175  97.5333  50.7970 0011586  33.6241 326.5729 15.24202451136937
RS58S MONITOR-3
1 57180U 23091Q   25353.83982139  .00007883  00000+0  33202-3 0  9995
2 57180  97.5361  51.2578 0013149  17.1212 343.0466 15.23549779136945
